HORYU-4                 
1 41340U 16012D   20195.62463034  .00000325  00000-0  17893-4 0  9999
2 41340  31.0039 165.1168 0013832  48.7743 311.4083 15.01516568241812
E-ST@R-II               
1 41459U 16025D   20196.09787378  .00001072  00000-0  57271-4 0  9990
2 41459  98.1075 307.4800 0166227 121.9087 239.8417 15.06496218231450
AAUSAT 4                
1 41460U 16025E   20196.06147029  .00002186  00000-0  10907-3 0  9993
2 41460  98.1057 309.8649 0154634 110.6061 251.1845 15.08836801231657
BEESAT-4                
1 41619U 16040W   20195.62275019  .00000917  00000-0  40584-4 0  9993
2 41619  97.3177 254.5363 0012859  88.3488 271.9223 15.24068354213380
CANX-7                  
1 41788U 16059F   20196.23510647  .00005826  00000-0  79624-3 0  9997
2 41788  98.2565 284.7545 0028514 202.2666 157.7319 14.78692580203776
RAVAN                   
1 41849U 16067B   20195.78387138  .00000672  00000-0  61213-4 0  9990
2 41849  97.9352 306.0865 0009895 148.4625 211.7192 14.98574637200562
CELTEE 1                
1 41850U 16067C   20196.07061828 -.00000240  00000-0 -15468-4 0  9994
2 41850  97.9304 304.0283 0009319 150.3738 209.8013 14.97199552200480
OPTICUBE 04             
1 41851U 16067D   20196.07243485 -.00000415  00000-0 -30809-4 0  9996
2 41851  97.9291 303.6352 0009295 153.0479 207.1226 14.96936052200461
AEROCUBE 8D             
1 41852U 16067E   20195.75451429 -.00000172  00000-0 -96435-5 0  9998
2 41852  97.9288 303.1504 0010072 157.0154 203.1520 14.96920841200395
AEROCUBE 8C             
1 41853U 16067F   20195.71988411  .00000726  00000-0  68545-4 0  9994
2 41853  97.9293 303.0168 0010722 155.8884 204.2841 14.96890064200385
PROMETHEUS 2-1          
1 41854U 16067G   20195.68377142 -.00000227  00000-0 -14307-4 0  9999
2 41854  97.9298 303.3263 0010646 157.6652 202.5034 14.97213602200392
PROMETHEUS 2-3          
1 41855U 16067H   20195.75086944 -.00000191  00000-0 -11251-4 0  9990
2 41855  97.9300 303.4283 0010822 157.9516 202.2173 14.97223284200408
INS-1B                  
1 41954U 17008G   20195.92440122  .00000806  00000-0  35298-4 0  9995
2 41954  97.3527 259.8498 0008406 197.1271 162.9685 15.24831851189406
BGUSAT                  
1 41999U 17008BD  20195.41323526  .00001355  00000-0  52953-4 0  9993
2 41999  97.3646 263.6390 0007039 206.1214 153.9672 15.27587816188913
DIDO-2                  
1 42000U 17008BE  20196.15525562  .00000539  00000-0  24765-4 0  9996
2 42000  97.3535 260.5730 0007309 216.6224 143.4515 15.24511131188830
PEASSS                  
1 42015U 17008BV  20195.65348441  .00000695  00000-0  30088-4 0  9993
2 42015  97.3560 261.7345 0005115 218.7165 141.3707 15.25660716189341
AL-FARABI 1             
1 42016U 17008BW  20195.98785879  .00000952  00000-0  39223-4 0  9996
2 42016  97.3590 263.1516 0005040 215.2659 144.8246 15.26516183189578
NAYIF-1 (EO-88)         
1 42017U 17008BX  20195.83476570  .00000940  00000-0  38723-4 0  9997
2 42017  97.3585 263.0115 0005072 215.2329 144.8575 15.26557215189572
UCLSAT                  
1 42765U 17036A   20195.42845424  .00000670  00000-0  30902-4 0  9992
2 42765  97.2989 248.9708 0009618 299.1361  60.8913 15.23572726170536
LITUANICASAT-2          
1 42768U 17036D   20195.98682390  .00001236  00000-0  53579-4 0  9991
2 42768  97.3045 249.5283 0012795 283.9318  76.0497 15.24154277169881
AALTO-1                 
1 42775U 17036L   20195.88462245  .00000445  00000-0  22504-4 0  9998
2 42775  97.2963 247.1572 0012120 289.0504  70.9420 15.21873810169694
URSA MAIOR              
1 42776U 17036M   20195.80498743  .00000496  00000-0  24642-4 0  9994
2 42776  97.2975 247.3759 0011933 289.0637  70.9307 15.22059554169691
COMPASS 2               
1 42777U 17036N   20195.81490606  .00001021  00000-0  44999-4 0  9998
2 42777  97.3034 249.7702 0010454 286.5046  73.5043 15.23990962169814
DIAMOND RED             
1 42783U 17036U   20195.23772313  .00000571  00000-0  27292-4 0  9995
2 42783  97.2988 248.0266 0010391 302.0485  57.9742 15.22876489169678
PEGASUS                 
1 42784U 17036V   20195.91889920  .00000674  00000-0  31346-4 0  9993
2 42784  97.2993 249.1269 0010213 298.0116  62.0088 15.23261538169807
DIAMOND GREEN           
1 42785U 17036W   20195.82786972  .00000607  00000-0  28832-4 0  9999
2 42785  97.2991 248.6366 0010265 300.4530  59.5692 15.22878602169833
DIAMOND BLUE            
1 42786U 17036X   20195.95850054  .00000591  00000-0  28127-4 0  9996
2 42786  97.2990 248.7586 0010108 300.2040  59.8196 15.22877660169776
NUDTSAT                 
1 42787U 17036Y   20195.95294394  .00001122  00000-0  48301-4 0  9993
2 42787  97.3040 250.6161 0010792 298.7911  61.2243 15.24593804169735
SUCHAI                  
1 42788U 17036Z   20195.80218303  .00000812  00000-0  36553-4 0  9995
2 42788  97.3002 249.6262 0009721 296.6293  63.3948 15.23820069169891
SKCUBE                  
1 42789U 17036AA  20195.78535341  .00000752  00000-0  34236-4 0  9996
2 42789  97.2996 249.4544 0009615 297.1416  62.8840 15.23658193169802
VZLUSAT-1               
1 42790U 17036AB  20195.81091331  .00001020  00000-0  44223-4 0  9994
2 42790  97.3021 250.4735 0009055 294.2054  65.8237 15.24578233169868
ROBUSTA-1B              
1 42792U 17036AD  20195.80155389  .00000783  00000-0  35333-4 0  9996
2 42792  97.2998 249.7296 0009190 297.6393  62.3911 15.23848930169839
CICERO 6                
1 42793U 17036AE  20196.12845201  .00000517  00000-0  24742-4 0  9999
2 42793  97.2973 249.4206 0008578 299.9616  60.0769 15.23180780169921
D-SAT                   
1 42794U 17036AF  20195.74433662 -.00000007  00000-0  50250-5 0  9990
2 42794  97.4917 227.0974 0124492 277.3708  81.3378 14.91290611166616
CORVUS BC2              
1 42846U 17042X   20195.72862615 -.00000102  00000-0 -48032-5 0  9999
2 42846  97.5200  78.0986 0009373 180.8391 179.2815 14.92115360163329
CORVUS BC1              
1 42847U 17042Y   20195.78959543 -.00000128  00000-0 -73871-5 0  9990
2 42847  97.5202  78.3311 0009050 179.4839 180.6391 14.92216927163337
MIRATA                  
1 43015U 17073C   20195.98008547  .00000606  00000-0  52691-4 0  9998
2 43015  97.7178 107.1873 0252297 322.3934  35.9864 14.79705283143148
MAKERSAT 0              
1 43016U 17073D   20195.47579169  .00000442  00000-0  40035-4 0  9993
2 43016  97.7214 106.8777 0255138 325.1495  33.3234 14.79255754143055
DELLINGR (RBLE)         
1 43021U 98067NJ  20195.57630247  .00009856  00000-0  80587-4 0  9991
2 43021  51.6343 146.2648 0001744 123.3393 236.7772 15.71293910150979
AEROCUBE 7B (OCSD B)    
1 43042U 17071F   20195.90889487  .00002094  00000-0  54715-4 0  9990
2 43042  51.6382 296.7306 0004697 139.2007 220.9332 15.43763626146466
AEROCUBE 7C (OCSD C)    
1 43043U 17071G   20195.84797803  .00002070  00000-0  54234-4 0  9994
2 43043  51.6383 297.0890 0004884 143.1909 216.9413 15.43737910146421
CHEFSAT                 
1 43044U 17071H   20195.81768359  .00004452  00000-0  89820-4 0  9991
2 43044  51.6379 281.4226 0004209 149.9222 210.2009 15.48703688146631
ASGARDIA 1              
1 43049U 17071N   20195.84075842  .00001957  00000-0  51700-4 0  9990
2 43049  51.6394 296.3676 0002516 153.5897 206.5218 15.43768510146433
ISARA                   
1 43050U 17071P   20195.81731333  .00003584  00000-0  76589-4 0  9993
2 43050  51.6361 284.2916 0002230 157.6849 202.4236 15.47644952146596
PROPCUBE 2 (FAUNA)      
1 43052U 17071R   20195.56024325  .00002263  00000-0  57488-4 0  9993
2 43052  51.6386 296.0115 0002507 149.8630 210.2501 15.44232663146406
CORVUS BC3              
1 43118U 18004H   20195.63534253  .00000456  00000-0  22155-4 0  9992
2 43118  97.4427 265.6936 0009292 328.9266  31.1420 15.23398830138989
MICROMAS-2A             
1 43131U 18004W   20195.62617304  .00001133  00000-0  47808-4 0  9990
2 43131  97.4477 267.5094 0008012 328.3527  31.7229 15.25358948139081
SPACEBEE-4              
1 43139U 18004AE  20195.63768669  .00001690  00000-0  67191-4 0  9995
2 43139  97.4513 268.7662 0007329 329.6668  30.4146 15.26681292139158
SPACEBEE-3              
1 43140U 18004AF  20195.63200199  .00002127  00000-0  81587-4 0  9997
2 43140  97.4530 269.4883 0006904 327.8255  32.2562 15.27604758139191
SPACEBEE-2              
1 43141U 18004AG  20196.19569472  .00002562  00000-0  96751-4 0  9994
2 43141  97.4540 270.3277 0006753 324.5119  35.5670 15.27920702139293
SPACEBEE-1              
1 43142U 18004AH  20195.30596788  .00002363  00000-0  88501-4 0  9990
2 43142  97.4544 269.7138 0006780 327.8406  32.2419 15.28281445139167
CICERO 7                
1 43143U 18004AJ  20195.75791295  .00001046  00000-0  44298-4 0  9992
2 43143  97.4456 267.8170 0006557 340.8909  19.2082 15.25391032139128
GOMX-4B                 
1 43196U 18015E   20195.61011583  .00000177  00000-0  10184-4 0  9993
2 43196  97.4415 323.9497 0019244  17.8969 342.2942 15.24276519135885
GOMX-4A                 
1 43197U 18015F   20196.16439008  .00000376  00000-0  18165-4 0  9999
2 43197  97.4411 324.5967 0019304  16.0148 107.4638 15.24537340135984
UBAKUSAT                
1 43467U 98067NQ  20195.47485014  .00020122  00000-0  12711-3 0  9996
2 43467  51.6353 147.6900 0002092 101.0809 259.0426 15.76607441124217
CUBERRT                 
1 43546U 98067NU  20195.60070665  .00013952  00000-0  98248-4 0  9994
2 43546  51.6319 147.0689 0002386 162.8618 197.2462 15.74426069114365
TEMPEST-D               
1 43547U 98067NV  20195.43817232  .00003348  00000-0  42249-4 0  9993
2 43547  51.6357 180.6584 0004619 145.8062 214.3230 15.62829813113588
RAINCUBE                
1 43548U 98067NW  20195.59781906  .00021739  00000-0  14410-3 0  9991
2 43548  51.6308 155.2561 0002751 161.5511 198.5589 15.75442371114380
HALOSAT                 
1 43549U 98067NX  20195.61411256  .00016698  00000-0  11653-3 0  9997
2 43549  51.6353 156.2096 0002195 162.0257 198.0820 15.74461989113938
